IRIDIUM 36 [-]          
1 24967U 97056C   23352.54941431  .00000498  00000+0  16283-3 0  9994
2 24967  86.3973  42.5118 0002110  89.0482 271.0957 14.36549743373710
IRIDIUM 38 [-]          
1 25043U 97069E   23352.40551176  .00000670  00000+0  21941-3 0  9991
2 25043  86.3960 103.0518 0004018 102.2985 257.8662 14.37012928367409
IRIDIUM 42 [-]          
1 25077U 97077A   23352.38285997  .00000578  00000+0  19500-3 0  9994
2 25077  86.3964 108.5658 0002710  95.7263 264.4243 14.35311554362732
IRIDIUM 45 [-]          
1 25104U 97082A   23352.39779782  .00008903  00000+0  55485-3 0  9994
2 25104  86.3752 307.2167 0174547 177.0833 183.1462 14.97507276369605
IRIDIUM 24 [-]          
1 25105U 97082B   23352.44280305  .00000783  00000+0  23787-3 0  9997
2 25105  86.3902 311.8310 0013826  83.9289 276.3486 14.40882560364455
IRIDIUM 51 [-]          
1 25262U 98018A   23352.40523923  .00011200  00000+0  59342-3 0  9995
2 25262  86.3936 317.5669 0162616 129.4832 232.0916 15.04449585364025
